ATLAS CENTAUR 2         
1 00694U 63047A   25357.04828925  .00002007  00000+0  23497-3 0  9995
2 00694  30.3529 263.8763 0548741 124.9843 240.3533 14.11803545120788
THOR AGENA D R/B        
1 00733U 64002A   25357.88659643  .00000225  00000+0  97594-4 0  9992
2 00733  99.1219   2.1081 0033775 118.3822 242.0773 14.33966056227434
SL-3 R/B                
1 00877U 64053B   25357.93313971  .00000161  00000+0  55673-4 0  9995
2 00877  65.0748 193.3220 0074807 316.6622  42.8609 14.61283768255722
SL-8 R/B                
1 02802U 67045B   25357.79659344  .00000428  00000+0  12605-3 0  9993
2 02802  74.0107 129.8164 0063748 156.4125 203.9980 14.45548042 78054
SL-8 R/B                
1 03230U 68040B   25357.75943148  .00003271  00000+0  24707-3 0  9994
2 03230  74.0313 108.7681 0026000 308.5184  51.3672 15.02598810 78600
OAO 2                   
1 03597U 68110A   25357.27442083  .00000240  00000+0  69932-4 0  9990
2 03597  34.9949 331.8501 0005993 300.7338  59.2762 14.47250268  8025
ISIS 1                  
1 03669U 69009A   25357.77000961  .00000225  00000+0  16195-3 0  9993
2 03669  88.4492 163.5897 1707029 242.4054  99.3622 11.30359246339951
SERT 2                  
1 04327U 70009A   25357.58108075  .00000034  00000+0  10299-3 0  9998
2 04327  99.2668 299.8773 0005082   9.4295 164.5169 13.58719222769551
SL-3 R/B                
1 05118U 71028B   25357.87417049  .00032952  00000+0  48441-3 0  9999
2 05118  81.2382 145.2333 0019162 200.5397 159.5085 15.55086552976868
ASTEX 1                 
1 05560U 71089A   25357.87960158  .00000545  00000+0  13889-3 0  9992
2 05560  92.7148 127.2238 0014935 349.0210  11.0668 14.50655277851317
SL-8 R/B                
1 05730U 71119B   25357.97347500  .00011606  00000+0  60336-3 0  9995
2 05730  73.8900 317.0532 0558533 299.0670  55.5632 14.35998026644611
OAO 3 (COPERNICUS)      
1 06153U 72065A   25356.81899410  .00000346  00000+0  75536-4 0  9998
2 06153  35.0071  15.2500 0007201 252.8570 274.0057 14.59914651834954
