CCSDS_OMM_VERS = 2.0
CREATION_DATE  = 
ORIGINATOR     = 

OBJECT_NAME    = ATLAS CENTAUR 2
OBJECT_ID      = 1963-047A
CENTER_NAME    = EARTH
REF_FRAME      = TEME
TIME_SYSTEM    = UTC
MEAN_ELEMENT_THEORY = SGP/SGP4

EPOCH          = 2025-12-23T01:09:32.191200
MEAN_MOTION    = 14.11803545
ECCENTRICITY   = .05487413
INCLINATION    = 30.3529
RA_OF_ASC_NODE = 263.8763
ARG_OF_PERICENTER = 124.9843
MEAN_ANOMALY   = 240.3533

EPHEMERIS_TYPE = 0
CLASSIFICATION_TYPE = U
NORAD_CAT_ID   = 694
ELEMENT_SET_NO = 999
REV_AT_EPOCH   = 12078
BSTAR          = .23497159E-3
MEAN_MOTION_DOT = .2007E-4
MEAN_MOTION_DDOT = 0

CCSDS_OMM_VERS = 2.0
CREATION_DATE  = 
ORIGINATOR     = 

OBJECT_NAME    = THOR AGENA D R/B
OBJECT_ID      = 1964-002A
CENTER_NAME    = EARTH
REF_FRAME      = TEME
TIME_SYSTEM    = UTC
MEAN_ELEMENT_THEORY = SGP/SGP4

EPOCH          = 2025-12-23T21:16:41.931552
MEAN_MOTION    = 14.33966056
ECCENTRICITY   = .00337758
INCLINATION    = 99.1219
RA_OF_ASC_NODE = 2.1081
ARG_OF_PERICENTER = 118.3822
MEAN_ANOMALY   = 242.0773

EPHEMERIS_TYPE = 0
CLASSIFICATION_TYPE = U
NORAD_CAT_ID   = 733
ELEMENT_SET_NO = 999
REV_AT_EPOCH   = 22743
BSTAR          = .97593551E-4
MEAN_MOTION_DOT = .225E-5
MEAN_MOTION_DDOT = 0

CCSDS_OMM_VERS = 2.0
CREATION_DATE  = 
ORIGINATOR     = 

OBJECT_NAME    = SL-3 R/B
OBJECT_ID      = 1964-053B
CENTER_NAME    = EARTH
REF_FRAME      = TEME
TIME_SYSTEM    = UTC
MEAN_ELEMENT_THEORY = SGP/SGP4

EPOCH          = 2025-12-23T22:23:43.270944
MEAN_MOTION    = 14.61283768
ECCENTRICITY   = .00748073
INCLINATION    = 65.0748
RA_OF_ASC_NODE = 193.3220
ARG_OF_PERICENTER = 316.6622
MEAN_ANOMALY   = 42.8609

EPHEMERIS_TYPE = 0
CLASSIFICATION_TYPE = U
NORAD_CAT_ID   = 877
ELEMENT_SET_NO = 999
REV_AT_EPOCH   = 25572
BSTAR          = .55673476E-4
MEAN_MOTION_DOT = .161E-5
MEAN_MOTION_DDOT = 0

CCSDS_OMM_VERS = 2.0
CREATION_DATE  = 
ORIGINATOR     = 

OBJECT_NAME    = SL-8 R/B
OBJECT_ID      = 1967-045B
CENTER_NAME    = EARTH
REF_FRAME      = TEME
TIME_SYSTEM    = UTC
MEAN_ELEMENT_THEORY = SGP/SGP4

EPOCH          = 2025-12-23T19:07:05.673216
MEAN_MOTION    = 14.45548042
ECCENTRICITY   = .0063748
INCLINATION    = 74.0107
RA_OF_ASC_NODE = 129.8164
ARG_OF_PERICENTER = 156.4125
MEAN_ANOMALY   = 203.9980

EPHEMERIS_TYPE = 0
CLASSIFICATION_TYPE = U
NORAD_CAT_ID   = 2802
ELEMENT_SET_NO = 999
REV_AT_EPOCH   = 7805
BSTAR          = .1260494E-3
MEAN_MOTION_DOT = .428E-5
MEAN_MOTION_DDOT = 0

CCSDS_OMM_VERS = 2.0
CREATION_DATE  = 
ORIGINATOR     = 

OBJECT_NAME    = SL-8 R/B
OBJECT_ID      = 1968-040B
CENTER_NAME    = EARTH
REF_FRAME      = TEME
TIME_SYSTEM    = UTC
MEAN_ELEMENT_THEORY = SGP/SGP4

EPOCH          = 2025-12-23T18:13:34.879872
MEAN_MOTION    = 15.02598810
ECCENTRICITY   = .00260005
INCLINATION    = 74.0313
RA_OF_ASC_NODE = 108.7681
ARG_OF_PERICENTER = 308.5184
MEAN_ANOMALY   = 51.3672

EPHEMERIS_TYPE = 0
CLASSIFICATION_TYPE = U
NORAD_CAT_ID   = 3230
ELEMENT_SET_NO = 999
REV_AT_EPOCH   = 7860
BSTAR          = .24706932E-3
MEAN_MOTION_DOT = .3271E-4
MEAN_MOTION_DDOT = 0

CCSDS_OMM_VERS = 2.0
CREATION_DATE  = 
ORIGINATOR     = 

OBJECT_NAME    = OAO 2
OBJECT_ID      = 1968-110A
CENTER_NAME    = EARTH
REF_FRAME      = TEME
TIME_SYSTEM    = UTC
MEAN_ELEMENT_THEORY = SGP/SGP4

EPOCH          = 2025-12-23T06:35:09.959712
MEAN_MOTION    = 14.47250268
ECCENTRICITY   = .00059931
INCLINATION    = 34.9949
RA_OF_ASC_NODE = 331.8501
ARG_OF_PERICENTER = 300.7338
MEAN_ANOMALY   = 59.2762

EPHEMERIS_TYPE = 0
CLASSIFICATION_TYPE = U
NORAD_CAT_ID   = 3597
ELEMENT_SET_NO = 999
REV_AT_EPOCH   = 802
BSTAR          = .69932149E-4
MEAN_MOTION_DOT = .24E-5
MEAN_MOTION_DDOT = 0

CCSDS_OMM_VERS = 2.0
CREATION_DATE  = 
ORIGINATOR     = 

OBJECT_NAME    = ISIS 1
OBJECT_ID      = 1969-009A
CENTER_NAME    = EARTH
REF_FRAME      = TEME
TIME_SYSTEM    = UTC
MEAN_ELEMENT_THEORY = SGP/SGP4

EPOCH          = 2025-12-23T18:28:48.830304
MEAN_MOTION    = 11.30359246
ECCENTRICITY   = .17070293
INCLINATION    = 88.4492
RA_OF_ASC_NODE = 163.5897
ARG_OF_PERICENTER = 242.4054
MEAN_ANOMALY   = 99.3622

EPHEMERIS_TYPE = 0
CLASSIFICATION_TYPE = U
NORAD_CAT_ID   = 3669
ELEMENT_SET_NO = 999
REV_AT_EPOCH   = 33995
BSTAR          = .16194951E-3
MEAN_MOTION_DOT = .225E-5
MEAN_MOTION_DDOT = 0

CCSDS_OMM_VERS = 2.0
CREATION_DATE  = 
ORIGINATOR     = 

OBJECT_NAME    = SERT 2
OBJECT_ID      = 1970-009A
CENTER_NAME    = EARTH
REF_FRAME      = TEME
TIME_SYSTEM    = UTC
MEAN_ELEMENT_THEORY = SGP/SGP4

EPOCH          = 2025-12-23T13:56:45.376800
MEAN_MOTION    = 13.58719222
ECCENTRICITY   = .00050826
INCLINATION    = 99.2668
RA_OF_ASC_NODE = 299.8773
ARG_OF_PERICENTER = 9.4295
MEAN_ANOMALY   = 164.5169

EPHEMERIS_TYPE = 0
CLASSIFICATION_TYPE = U
NORAD_CAT_ID   = 4327
ELEMENT_SET_NO = 999
REV_AT_EPOCH   = 76955
BSTAR          = .10298588E-3
MEAN_MOTION_DOT = .34E-6
MEAN_MOTION_DDOT = 0

CCSDS_OMM_VERS = 2.0
CREATION_DATE  = 
ORIGINATOR     = 

OBJECT_NAME    = SL-3 R/B
OBJECT_ID      = 1971-028B
CENTER_NAME    = EARTH
REF_FRAME      = TEME
TIME_SYSTEM    = UTC
MEAN_ELEMENT_THEORY = SGP/SGP4

EPOCH          = 2025-12-23T20:58:48.330336
MEAN_MOTION    = 15.55086552
ECCENTRICITY   = .00191629
INCLINATION    = 81.2382
RA_OF_ASC_NODE = 145.2333
ARG_OF_PERICENTER = 200.5397
MEAN_ANOMALY   = 159.5085

EPHEMERIS_TYPE = 0
CLASSIFICATION_TYPE = U
NORAD_CAT_ID   = 5118
ELEMENT_SET_NO = 999
REV_AT_EPOCH   = 97686
BSTAR          = .48441423E-3
MEAN_MOTION_DOT = .32952E-3
MEAN_MOTION_DDOT = 0

CCSDS_OMM_VERS = 2.0
CREATION_DATE  = 
ORIGINATOR     = 

OBJECT_NAME    = ASTEX 1
OBJECT_ID      = 1971-089A
CENTER_NAME    = EARTH
REF_FRAME      = TEME
TIME_SYSTEM    = UTC
MEAN_ELEMENT_THEORY = SGP/SGP4

EPOCH          = 2025-12-23T21:06:37.576512
MEAN_MOTION    = 14.50655277
ECCENTRICITY   = .00149358
INCLINATION    = 92.7148
RA_OF_ASC_NODE = 127.2238
ARG_OF_PERICENTER = 349.0210
MEAN_ANOMALY   = 11.0668

EPHEMERIS_TYPE = 0
CLASSIFICATION_TYPE = U
NORAD_CAT_ID   = 5560
ELEMENT_SET_NO = 999
REV_AT_EPOCH   = 85131
BSTAR          = .13888965E-3
MEAN_MOTION_DOT = .545E-5
MEAN_MOTION_DDOT = 0

CCSDS_OMM_VERS = 2.0
CREATION_DATE  = 
ORIGINATOR     = 

OBJECT_NAME    = SL-8 R/B
OBJECT_ID      = 1971-119B
CENTER_NAME    = EARTH
REF_FRAME      = TEME
TIME_SYSTEM    = UTC
MEAN_ELEMENT_THEORY = SGP/SGP4

EPOCH          = 2025-12-23T23:21:48.240000
MEAN_MOTION    = 14.35998026
ECCENTRICITY   = .05585332
INCLINATION    = 73.8900
RA_OF_ASC_NODE = 317.0532
ARG_OF_PERICENTER = 299.0670
MEAN_ANOMALY   = 55.5632

EPHEMERIS_TYPE = 0
CLASSIFICATION_TYPE = U
NORAD_CAT_ID   = 5730
ELEMENT_SET_NO = 999
REV_AT_EPOCH   = 64461
BSTAR          = .60335584E-3
MEAN_MOTION_DOT = .11606E-3
MEAN_MOTION_DDOT = 0

CCSDS_OMM_VERS = 2.0
CREATION_DATE  = 
ORIGINATOR     = 

OBJECT_NAME    = OAO 3 (COPERNICUS)
OBJECT_ID      = 1972-065A
CENTER_NAME    = EARTH
REF_FRAME      = TEME
TIME_SYSTEM    = UTC
MEAN_ELEMENT_THEORY = SGP/SGP4

EPOCH          = 2025-12-22T19:39:21.090240
MEAN_MOTION    = 14.59914651
ECCENTRICITY   = .00072013
INCLINATION    = 35.0071
RA_OF_ASC_NODE = 15.2500
ARG_OF_PERICENTER = 252.8570
MEAN_ANOMALY   = 274.0057

EPHEMERIS_TYPE = 0
CLASSIFICATION_TYPE = U
NORAD_CAT_ID   = 6153
ELEMENT_SET_NO = 999
REV_AT_EPOCH   = 83495
BSTAR          = .75535719E-4
MEAN_MOTION_DOT = .346E-5
MEAN_MOTION_DDOT = 0

